[{"OBJECT_NAME":"METOP-B","OBJECT_ID":"2012-049A","EPOCH":"2026-04-04T04:59:42.828576","MEAN_MOTION":14.2142752,"ECCENTRICITY":0.00024148,"INCLINATION":98.6586,"RA_OF_ASC_NODE":147.1564,"ARG_OF_PERICENTER":172.2208,"MEAN_ANOMALY":187.9007,"EPHEMERIS_TYPE":0,"CLASSIFICATION_TYPE":"U","NORAD_CAT_ID":38771,"ELEMENT_SET_NO":999,"REV_AT_EPOCH":70275,"BSTAR":0.00011894858,"MEAN_MOTION_DOT":2.17e-6,"MEAN_MOTION_DDOT":0},{"OBJECT_NAME":"SARAL","OBJECT_ID":"2013-009A","EPOCH":"2026-04-04T05:30:20.506464","MEAN_MOTION":14.32837628,"ECCENTRICITY":0.00027097,"INCLINATION":98.5564,"RA_OF_ASC_NODE":281.7275,"ARG_OF_PERICENTER":123.5759,"MEAN_ANOMALY":236.5684,"EPHEMERIS_TYPE":0,"CLASSIFICATION_TYPE":"U","NORAD_CAT_ID":39086,"ELEMENT_SET_NO":999,"REV_AT_EPOCH":68501,"BSTAR":8.3887369e-5,"MEAN_MOTION_DOT":1.85e-6,"MEAN_MOTION_DDOT":0},{"OBJECT_NAME":"METOP-C","OBJECT_ID":"2018-087A","EPOCH":"2026-04-04T05:33:11.969856","MEAN_MOTION":14.21506189,"ECCENTRICITY":0.00017956,"INCLINATION":98.6713,"RA_OF_ASC_NODE":155.1642,"ARG_OF_PERICENTER":65.4233,"MEAN_ANOMALY":294.7131,"EPHEMERIS_TYPE":0,"CLASSIFICATION_TYPE":"U","NORAD_CAT_ID":43689,"ELEMENT_SET_NO":999,"REV_AT_EPOCH":38432,"BSTAR":0.00011876447,"MEAN_MOTION_DOT":2.16e-6,"MEAN_MOTION_DDOT":0},{"OBJECT_NAME":"OTB-3-GAZELLE","OBJECT_ID":"2022-127A","EPOCH":"2026-04-03T23:41:09.810240","MEAN_MOTION":14.42647627,"ECCENTRICITY":0.00141934,"INCLINATION":98.393,"RA_OF_ASC_NODE":86.8312,"ARG_OF_PERICENTER":55.6693,"MEAN_ANOMALY":304.5838,"EPHEMERIS_TYPE":0,"CLASSIFICATION_TYPE":"U","NORAD_CAT_ID":54023,"ELEMENT_SET_NO":999,"REV_AT_EPOCH":18366,"BSTAR":9.9816789e-5,"MEAN_MOTION_DOT":2.89e-6,"MEAN_MOTION_DDOT":0},{"OBJECT_NAME":"EOS-6 (OCEANSAT-3)","OBJECT_ID":"2022-158A","EPOCH":"2026-04-04T07:28:35.620896","MEAN_MOTION":14.46982429,"ECCENTRICITY":0.00016438,"INCLINATION":98.3484,"RA_OF_ASC_NODE":193.5058,"ARG_OF_PERICENTER":136.5507,"MEAN_ANOMALY":223.5816,"EPHEMERIS_TYPE":0,"CLASSIFICATION_TYPE":"U","NORAD_CAT_ID":54361,"ELEMENT_SET_NO":999,"REV_AT_EPOCH":17715,"BSTAR":0.00017576105,"MEAN_MOTION_DOT":5.95e-6,"MEAN_MOTION_DDOT":0},{"OBJECT_NAME":"KINEIS-1B","OBJECT_ID":"2024-114A","EPOCH":"2026-04-04T07:39:06.414336","MEAN_MOTION":14.80494728,"ECCENTRICITY":0.00021597,"INCLINATION":97.9887,"RA_OF_ASC_NODE":118.8453,"ARG_OF_PERICENTER":16.4464,"MEAN_ANOMALY":343.6817,"EPHEMERIS_TYPE":0,"CLASSIFICATION_TYPE":"U","NORAD_CAT_ID":60079,"ELEMENT_SET_NO":999,"REV_AT_EPOCH":9647,"BSTAR":0.00031785362,"MEAN_MOTION_DOT":2.38e-5,"MEAN_MOTION_DDOT":0},{"OBJECT_NAME":"KINEIS-1C","OBJECT_ID":"2024-114C","EPOCH":"2026-04-04T06:50:29.756832","MEAN_MOTION":14.80497262,"ECCENTRICITY":0.00024915,"INCLINATION":97.9905,"RA_OF_ASC_NODE":118.6428,"ARG_OF_PERICENTER":84.6074,"MEAN_ANOMALY":275.5422,"EPHEMERIS_TYPE":0,"CLASSIFICATION_TYPE":"U","NORAD_CAT_ID":60081,"ELEMENT_SET_NO":999,"REV_AT_EPOCH":9644,"BSTAR":0.00032922489,"MEAN_MOTION_DOT":2.467e-5,"MEAN_MOTION_DDOT":0},{"OBJECT_NAME":"KINEIS-1D","OBJECT_ID":"2024-114D","EPOCH":"2026-04-04T07:07:15.609216","MEAN_MOTION":14.76162551,"ECCENTRICITY":0.000288,"INCLINATION":97.9945,"RA_OF_ASC_NODE":115.2263,"ARG_OF_PERICENTER":83.8515,"MEAN_ANOMALY":276.3023,"EPHEMERIS_TYPE":0,"CLASSIFICATION_TYPE":"U","NORAD_CAT_ID":60082,"ELEMENT_SET_NO":999,"REV_AT_EPOCH":9622,"BSTAR":0.00018699902,"MEAN_MOTION_DOT":1.241e-5,"MEAN_MOTION_DDOT":0},{"OBJECT_NAME":"KINEIS-1E","OBJECT_ID":"2024-114E","EPOCH":"2026-04-04T03:58:42.412224","MEAN_MOTION":14.80566455,"ECCENTRICITY":0.00026022,"INCLINATION":97.961,"RA_OF_ASC_NODE":118.5585,"ARG_OF_PERICENTER":98.2972,"MEAN_ANOMALY":261.8535,"EPHEMERIS_TYPE":0,"CLASSIFICATION_TYPE":"U","NORAD_CAT_ID":60083,"ELEMENT_SET_NO":999,"REV_AT_EPOCH":9643,"BSTAR":4.3083433e-5,"MEAN_MOTION_DOT":2.78e-6,"MEAN_MOTION_DDOT":0},{"OBJECT_NAME":"KINEIS-1A","OBJECT_ID":"2024-114F","EPOCH":"2026-04-04T08:02:36.852864","MEAN_MOTION":14.80498025,"ECCENTRICITY":0.0003874,"INCLINATION":97.9583,"RA_OF_ASC_NODE":118.8484,"ARG_OF_PERICENTER":32.9934,"MEAN_ANOMALY":327.1519,"EPHEMERIS_TYPE":0,"CLASSIFICATION_TYPE":"U","NORAD_CAT_ID":60084,"ELEMENT_SET_NO":999,"REV_AT_EPOCH":9646,"BSTAR":-2.3012e-6,"MEAN_MOTION_DOT":-7.0e-7,"MEAN_MOTION_DDOT":0},{"OBJECT_NAME":"KINEIS-3C","OBJECT_ID":"2024-172A","EPOCH":"2026-04-04T04:46:05.737728","MEAN_MOTION":14.72315661,"ECCENTRICITY":0.00026438,"INCLINATION":98.0346,"RA_OF_ASC_NODE":184.8992,"ARG_OF_PERICENTER":57.2676,"MEAN_ANOMALY":302.8786,"EPHEMERIS_TYPE":0,"CLASSIFICATION_TYPE":"U","NORAD_CAT_ID":61220,"ELEMENT_SET_NO":999,"REV_AT_EPOCH":8218,"BSTAR":0.00071649995,"MEAN_MOTION_DOT":4.482e-5,"MEAN_MOTION_DDOT":0},{"OBJECT_NAME":"KINEIS-3D","OBJECT_ID":"2024-172B","EPOCH":"2026-04-04T06:14:15.791136","MEAN_MOTION":14.72322356,"ECCENTRICITY":0.00019821,"INCLINATION":98.0345,"RA_OF_ASC_NODE":184.9709,"ARG_OF_PERICENTER":66.1902,"MEAN_ANOMALY":293.9513,"EPHEMERIS_TYPE":0,"CLASSIFICATION_TYPE":"U","NORAD_CAT_ID":61221,"ELEMENT_SET_NO":999,"REV_AT_EPOCH":8247,"BSTAR":0.00072050535,"MEAN_MOTION_DOT":4.508e-5,"MEAN_MOTION_DDOT":0},{"OBJECT_NAME":"KINEIS-3E","OBJECT_ID":"2024-172C","EPOCH":"2026-04-04T05:49:28.284672","MEAN_MOTION":14.7231664,"ECCENTRICITY":0.00011436,"INCLINATION":98.035,"RA_OF_ASC_NODE":184.9461,"ARG_OF_PERICENTER":80.1176,"MEAN_ANOMALY":280.016,"EPHEMERIS_TYPE":0,"CLASSIFICATION_TYPE":"U","NORAD_CAT_ID":61222,"ELEMENT_SET_NO":999,"REV_AT_EPOCH":8247,"BSTAR":0.00028869305,"MEAN_MOTION_DOT":1.776e-5,"MEAN_MOTION_DDOT":0},{"OBJECT_NAME":"KINEIS-3A","OBJECT_ID":"2024-172D","EPOCH":"2026-04-04T05:25:24.081024","MEAN_MOTION":14.72349302,"ECCENTRICITY":0.00013468,"INCLINATION":98.0334,"RA_OF_ASC_NODE":185.0232,"ARG_OF_PERICENTER":13.672,"MEAN_ANOMALY":346.4524,"EPHEMERIS_TYPE":0,"CLASSIFICATION_TYPE":"U","NORAD_CAT_ID":61223,"ELEMENT_SET_NO":999,"REV_AT_EPOCH":8189,"BSTAR":0.00069517661,"MEAN_MOTION_DOT":4.35e-5,"MEAN_MOTION_DDOT":0},{"OBJECT_NAME":"KINEIS-3B","OBJECT_ID":"2024-172E","EPOCH":"2026-04-04T05:01:14.863584","MEAN_MOTION":14.72335298,"ECCENTRICITY":0.00013773,"INCLINATION":98.0331,"RA_OF_ASC_NODE":185.0362,"ARG_OF_PERICENTER":359.6949,"MEAN_ANOMALY":0.4257,"EPHEMERIS_TYPE":0,"CLASSIFICATION_TYPE":"U","NORAD_CAT_ID":61224,"ELEMENT_SET_NO":999,"REV_AT_EPOCH":8246,"BSTAR":0.00069225623,"MEAN_MOTION_DOT":4.331e-5,"MEAN_MOTION_DDOT":0},{"OBJECT_NAME":"KINEIS-5C","OBJECT_ID":"2024-219A","EPOCH":"2026-04-02T23:04:13.376352","MEAN_MOTION":14.72331808,"ECCENTRICITY":0.00044841,"INCLINATION":97.9289,"RA_OF_ASC_NODE":253.8721,"ARG_OF_PERICENTER":119.3889,"MEAN_ANOMALY":240.7767,"EPHEMERIS_TYPE":0,"CLASSIFICATION_TYPE":"U","NORAD_CAT_ID":62081,"ELEMENT_SET_NO":999,"REV_AT_EPOCH":7268,"BSTAR":-2.9484997e-5,"MEAN_MOTION_DOT":-2.35e-6,"MEAN_MOTION_DDOT":0},{"OBJECT_NAME":"KINEIS-5D","OBJECT_ID":"2024-219B","EPOCH":"2026-04-04T03:37:14.399904","MEAN_MOTION":14.72330144,"ECCENTRICITY":0.00050359,"INCLINATION":97.9227,"RA_OF_ASC_NODE":254.9913,"ARG_OF_PERICENTER":127.8012,"MEAN_ANOMALY":232.3652,"EPHEMERIS_TYPE":0,"CLASSIFICATION_TYPE":"U","NORAD_CAT_ID":62082,"ELEMENT_SET_NO":999,"REV_AT_EPOCH":7286,"BSTAR":5.1146212e-5,"MEAN_MOTION_DOT":2.75e-6,"MEAN_MOTION_DDOT":0}]
