METOP-B                 
1 38771U 12049A   26094.20813459  .00000217  00000+0  11895-3 0  9991
2 38771  98.6586 147.1564 0002414 172.2208 187.9007 14.21427520702752
SARAL                   
1 39086U 13009A   26094.22940401  .00000185  00000+0  83887-4 0  9993
2 39086  98.5564 281.7275 0002709 123.5759 236.5684 14.32837628685015
METOP-C                 
1 43689U 18087A   26094.23138854  .00000216  00000+0  11876-3 0  9993
2 43689  98.6713 155.1642 0001795  65.4233 294.7131 14.21506189384329
OTB-3-GAZELLE           
1 54023U 22127A   26093.98691910  .00000289  00000+0  99817-4 0  9997
2 54023  98.3930  86.8312 0014193  55.6693 304.5838 14.42647627183666
EOS-6 (OCEANSAT-3)      
1 54361U 22158A   26094.31152339  .00000595  00000+0  17576-3 0  9992
2 54361  98.3484 193.5058 0001643 136.5507 223.5816 14.46982429177156
KINEIS-1B               
1 60079U 24114A   26094.31882424  .00002380  00000+0  31785-3 0  9996
2 60079  97.9887 118.8453 0002159  16.4464 343.6817 14.80494728 96479
KINEIS-1C               
1 60081U 24114C   26094.28506663  .00002467  00000+0  32922-3 0  9993
2 60081  97.9905 118.6428 0002491  84.6074 275.5422 14.80497262 96444
KINEIS-1D               
1 60082U 24114D   26094.29670844  .00001241  00000+0  18700-3 0  9995
2 60082  97.9945 115.2263 0002880  83.8515 276.3023 14.76162551 96229
KINEIS-1E               
1 60083U 24114E   26094.16576866  .00000278  00000+0  43083-4 0  9993
2 60083  97.9610 118.5585 0002602  98.2972 261.8535 14.80566455 96437
KINEIS-1A               
1 60084U 24114F   26094.33514876 -.00000070  00000+0 -23012-5 0  9999
2 60084  97.9583 118.8484 0003874  32.9934 327.1519 14.80498025 96461
KINEIS-3C               
1 61220U 24172A   26094.19867752  .00004482  00000+0  71650-3 0  9992
2 61220  98.0346 184.8992 0002643  57.2676 302.8786 14.72315661 82181
KINEIS-3D               
1 61221U 24172B   26094.25990499  .00004508  00000+0  72051-3 0  9990
2 61221  98.0345 184.9709 0001982  66.1902 293.9513 14.72322356 82473
KINEIS-3E               
1 61222U 24172C   26094.24268848  .00001776  00000+0  28869-3 0  9998
2 61222  98.0350 184.9461 0001143  80.1176 280.0160 14.72316640 82477
KINEIS-3A               
1 61223U 24172D   26094.22597316  .00004350  00000+0  69518-3 0  9999
2 61223  98.0334 185.0232 0001346  13.6720 346.4524 14.72349302 81896
KINEIS-3B               
1 61224U 24172E   26094.20919981  .00004331  00000+0  69226-3 0  9999
2 61224  98.0331 185.0362 0001377 359.6949   0.4257 14.72335298 82461
KINEIS-5C               
1 62081U 24219A   26092.96126593 -.00000235  00000+0 -29485-4 0  9998
2 62081  97.9289 253.8721 0004484 119.3889 240.7767 14.72331808 72683
KINEIS-5D               
1 62082U 24219B   26094.15086111  .00000275  00000+0  51146-4 0  9994
2 62082  97.9227 254.9913 0005035 127.8012 232.3652 14.72330144 72868
